[{"OBJECT_NAME":"STARLINK-3516","OBJECT_ID":"2022-016AB","EPOCH":"2026-03-09T21:55:18.692256","MEAN_MOTION":15.08832918,"ECCENTRICITY":0.0001344,"INCLINATION":53.219,"RA_OF_ASC_NODE":318.1159,"ARG_OF_PERICENTER":97.2091,"MEAN_ANOMALY":262.9054,"EPHEMERIS_TYPE":0,"CLASSIFICATION_TYPE":"U","NORAD_CAT_ID":51739,"ELEMENT_SET_NO":999,"REV_AT_EPOCH":22359,"BSTAR":-3.9048458e-5,"MEAN_MOTION_DOT":-9.09e-6,"MEAN_MOTION_DDOT":0},{"OBJECT_NAME":"SL-8 DEB","OBJECT_ID":"1976-098E","EPOCH":"2026-03-09T08:07:12.416160","MEAN_MOTION":15.06605169,"ECCENTRICITY":0.00102283,"INCLINATION":74.028,"RA_OF_ASC_NODE":26.283,"ARG_OF_PERICENTER":218.296,"MEAN_ANOMALY":294.2383,"EPHEMERIS_TYPE":0,"CLASSIFICATION_TYPE":"U","NORAD_CAT_ID":18504,"ELEMENT_SET_NO":999,"REV_AT_EPOCH":18055,"BSTAR":0.0011587434,"MEAN_MOTION_DOT":0.00017191,"MEAN_MOTION_DDOT":0}]
